NORAD_CAT_ID,OBJECT_NAME,OBJECT_TYPE,EPOCH,MEAN_MOTION,ECCENTRICITY,INCLINATION,RA_OF_ASC_NODE,ARG_OF_PERICENTER,MEAN_ANOMALY,BSTAR,MEAN_MOTION_DOT,MEAN_MOTION_DDOT,TLE_LINE0,TLE_LINE1,TLE_LINE2,SEMIMAJOR_AXIS,PERIOD,APOGEE,PERIGEE,DECAYED
49138.0,STARLINK-3058,PAYLOAD,2023-05-13 00:07:44,14.98336286,0.0003314,70.0002,15.7076,274.9237,85.1544,8.8324e-05,9.61e-06,0.0,0 STARLINK-3058,1 49138U 21082J   23133.00537575  .00000961  00000-0  88324-4 0  9997,2 49138  70.0002  15.7076 0003314 274.9237  85.1544 14.98336286 91442,6950.173,96.107,574.342,569.735,0.0
49138.0,STARLINK-3058,PAYLOAD,2023-05-13 01:43:52,14.98338681,0.0003008,70.0006,15.5398,270.285,89.7964,7.4831e-05,8e-06,0.0,0 STARLINK-3058,1 49138U 21082J   23133.07213435  .00000800  00000-0  74831-4 0  9990,2 49138  70.0006  15.5398 0003008 270.2850  89.7964 14.98338681 91459,6950.166,96.106,574.122,569.94,0.0
49138.0,STARLINK-3058,PAYLOAD,2023-05-13 20:57:29,14.98325388,0.0002899,70.0007,13.5192,269.5623,90.5204,5.909e-05,6.12e-06,0.0,0 STARLINK-3058,1 49138U 21082J   23133.87326241  .00000612  00000-0  59090-4 0  9999,2 49138  70.0007  13.5192 0002899 269.5623  90.5204 14.98325388 91576,6950.207,96.107,574.087,570.057,0.0
49138.0,STARLINK-3058,PAYLOAD,2023-05-14 01:45:53,14.98328267,0.0002905,70.0007,13.0143,269.4219,90.6607,8.4915e-05,9.2e-06,0.0,0 STARLINK-3058,1 49138U 21082J   23134.07354004  .00000920  00000-0  84915-4 0  9996,2 49138  70.0007  13.0143 0002905 269.4219  90.6607 14.98328267 91606,6950.198,96.107,574.082,570.044,0.0
49138.0,STARLINK-3058,PAYLOAD,2023-05-14 19:23:22,14.98330439,0.0002822,70.0011,11.1653,265.379,94.7047,-2.6494e-05,-4.09e-06,0.0,0 STARLINK-3058,1 49138U 21082J   23134.80790155 -.00000409  00000-0 -26494-4 0  9990,2 49138  70.0011  11.1653 0002822 265.3790  94.7047 14.98330439 91712,6950.192,96.107,574.018,570.095,0.0
49138.0,STARLINK-3058,PAYLOAD,2023-05-15 01:47:54,14.98333279,0.0002933,70.0005,10.4888,268.9257,91.1566,-2.3799e-05,-3.77e-06,0.0,0 STARLINK-3058,1 49138U 21082J   23135.07493941 -.00000377  00000-0 -23799-4 0  9992,2 49138  70.0005  10.4888 0002933 268.9257  91.1566 14.98333279 91753,6950.183,96.107,574.086,570.009,0.0
49138.0,STARLINK-3058,PAYLOAD,2023-05-15 16:13:07,14.98329599,0.0002923,70.0004,8.974,269.4007,90.6817,1.1422e-05,4.3e-07,0.0,0 STARLINK-3058,1 49138U 21082J   23135.67578036  .00000043  00000-0  11422-4 0  9995,2 49138  70.0004   8.9740 0002923 269.4007  90.6817 14.98329599 91842,6950.194,96.107,574.091,570.028,0.0
49138.0,STARLINK-3058,PAYLOAD,2023-05-16 01:49:55,14.98328958,0.0002938,70.0004,7.964,269.5976,90.4847,3.8389e-06,-4.7e-07,0.0,0 STARLINK-3058,1 49138U 21082J   23136.07634117 -.00000047  00000-0  38389-5 0  9990,2 49138  70.0004   7.9640 0002938 269.5976  90.4847 14.98328958 91908,6950.196,96.107,574.103,570.019,0.0
49138.0,STARLINK-3058,PAYLOAD,2023-05-17 19:29:25,14.98327698,0.0003076,70.0001,3.5876,265.4144,94.6664,4.3936e-06,-4.1e-07,0.0,0 STARLINK-3058,1 49138U 21082J   23137.81210109 -.00000041  00000-0  43936-5 0  9992,2 49138  70.0001   3.5876 0003076 265.4144  94.6664 14.98327698 92166,6950.2,96.107,574.203,569.927,0.0
49138.0,STARLINK-3058,PAYLOAD,2023-05-17 21:05:33,14.98327723,0.0003123,70.0,3.4191,268.082,91.9982,2.4529e-07,-9e-07,0.0,0 STARLINK-3058,1 49138U 21082J   23137.87886140 -.00000090  00000-0  24529-6 0  9994,2 49138  70.0000   3.4191 0003123 268.0820  91.9982 14.98327723 92170,6950.2,96.107,574.235,569.894,0.0
49138.0,STARLINK-3058,PAYLOAD,2023-05-18 11:30:46,14.98330585,0.0003112,70.0,1.9043,269.1429,90.9374,2.7851e-06,-6e-07,0.0,0 STARLINK-3058,1 49138U 21082J   23138.47969966 -.00000060  00000-0  27851-5 0  9996,2 49138  70.0000   1.9043 0003112 269.1429  90.9374 14.98330585 92268,6950.191,96.107,574.219,569.893,0.0
49138.0,STARLINK-3058,PAYLOAD,2023-05-19 00:19:50,14.98330918,0.0003133,69.9999,0.5578,269.6459,90.4341,3.9493e-05,3.78e-06,0.0,0 STARLINK-3058,1 49138U 21082J   23139.01377789  .00000378  00000-0  39493-4 0  9998,2 49138  69.9999   0.5578 0003133 269.6459  90.4341 14.98330918 92349,6950.19,96.107,574.233,569.878,0.0
49138.0,STARLINK-3058,PAYLOAD,2023-05-19 21:09:35,14.98329124,0.0003132,70.0,358.3695,269.133,90.9471,2.6427e-05,2.22e-06,0.0,0 STARLINK-3058,1 49138U 21082J   23139.88165921  .00000222  00000-0  26427-4 0  9997,2 49138  70.0000 358.3695 0003132 269.1330  90.9471 14.98329124 92471,6950.196,96.107,574.237,569.884,0.0
49138.0,STARLINK-3058,PAYLOAD,2023-05-20 00:21:51,14.98330059,0.0003115,70.0001,358.0329,269.0233,91.0569,3.6976e-05,3.48e-06,0.0,0 STARLINK-3058,1 49138U 21082J   23140.01517839  .00000348  00000-0  36976-4 0  9992,2 49138  70.0001 358.0329 0003115 269.0233  91.0569 14.98330059 92496,6950.193,96.107,574.223,569.893,0.0
49138.0,STARLINK-3058,PAYLOAD,2023-05-20 21:11:35,14.98338647,0.0003122,70.0001,355.8452,268.2071,91.873,7.7053e-05,8.27e-06,0.0,0 STARLINK-3058,1 49138U 21082J   23140.88304986  .00000827  00000-0  77053-4 0  9997,2 49138  70.0001 355.8452 0003122 268.2071  91.8730 14.98338647 92621,6950.166,96.106,574.201,569.861,0.0
49138.0,STARLINK-3058,PAYLOAD,2023-05-21 00:23:51,14.98339125,0.0003104,70.0001,355.5082,268.428,91.6524,0.00010864,1.204e-05,0.0,0 STARLINK-3058,1 49138U 21082J   23141.01656790  .00001204  00000-0  10864-3 0  9992,2 49138  70.0001 355.5082 0003104 268.4280  91.6524 14.98339125 92644,6950.165,96.106,574.187,569.872,0.0
49138.0,STARLINK-3058,PAYLOAD,2023-05-21 14:49:05,14.98328235,0.0002649,70.0015,353.9974,257.5265,102.5598,-0.00010337,-1.326e-05,0.0,0 STARLINK-3058,1 49138U 21082J   23141.61742160 -.00001326  00000-0 -10337-3 0  9997,2 49138  70.0015 353.9974 0002649 257.5265 102.5598 14.98328235 92739,6950.198,96.107,573.904,570.222,0.0
49138.0,STARLINK-3058,PAYLOAD,2023-05-21 21:13:37,14.98321036,0.0002795,70.0012,353.3198,267.9327,92.1512,-7.1263e-05,-9.43e-06,0.0,0 STARLINK-3058,1 49138U 21082J   23141.88446575 -.00000943  00000-0 -71263-4 0  9997,2 49138  70.0012 353.3198 0002795 267.9327  92.1512 14.98321036 92770,6950.221,96.108,574.028,570.143,0.0
49138.0,STARLINK-3058,PAYLOAD,2023-05-22 00:25:54,14.98320276,0.0002866,70.0005,352.9839,266.2407,93.8424,-9.595e-05,-1.237e-05,0.0,0 STARLINK-3058,1 49138U 21082J   23142.01798767 -.00001237  00000-0 -95950-4 0  9992,2 49138  70.0005 352.9839 0002866 266.2407  93.8424 14.98320276 92796,6950.223,96.108,574.08,570.096,0.0
49138.0,STARLINK-3058,PAYLOAD,2023-05-22 13:14:57,14.98334115,0.0003045,69.9997,351.6359,270.0245,90.0565,-4.9366e-05,-6.82e-06,0.0,0 STARLINK-3058,1 49138U 21082J   23142.55205902 -.00000682  00000-0 -49366-4 0  9998,2 49138  69.9997 351.6359 0003045 270.0245  90.0565 14.98334115 92870,6950.18,96.107,574.161,569.929,0.0
49138.0,STARLINK-3058,PAYLOAD,2023-05-22 16:27:13,14.98335015,0.0003042,69.9997,351.2993,269.3835,90.6975,-3.585e-05,-5.21e-06,0.0,0 STARLINK-3058,1 49138U 21082J   23142.68557772 -.00000521  00000-0 -35850-4 0  9992,2 49138  69.9997 351.2993 0003042 269.3835  90.6975 14.98335015 92896,6950.177,96.107,574.157,569.928,0.0
49138.0,STARLINK-3058,PAYLOAD,2023-05-23 19:41:31,14.98327349,0.0003271,69.9991,348.4377,265.1625,94.916,0.00012668,1.419e-05,0.0,0 STARLINK-3058,1 49138U 21082J   23143.82049772  .00001419  00000-0  12668-3 0  9991,2 49138  69.9991 348.4377 0003271 265.1625  94.9160 14.98327349 93063,6950.201,96.107,574.339,569.793,0.0
49138.0,STARLINK-3058,PAYLOAD,2023-05-24 16:31:15,14.9833076,0.0003106,69.9996,346.2498,264.5738,95.5066,1.0937e-05,3.7e-07,0.0,0 STARLINK-3058,1 49138U 21082J   23144.68837933  .00000037  00000-0  10937-4 0  9993,2 49138  69.9996 346.2498 0003106 264.5738  95.5066 14.98330760 93190,6950.191,96.107,574.214,569.897,0.0
49138.0,STARLINK-3058,PAYLOAD,2023-05-25 18:09:24,14.9833159,0.0003113,69.9996,343.5566,265.0167,95.0636,-3.2014e-07,-9.7e-07,0.0,0 STARLINK-3058,1 49138U 21082J   23145.75653768 -.00000097  00000-0 -32014-6 0  9994,2 49138  69.9996 343.5566 0003113 265.0167  95.0636 14.98331590 93354,6950.188,96.107,574.217,569.889,0.0
49138.0,STARLINK-3058,PAYLOAD,2023-05-25 21:21:40,14.98332053,0.0003097,69.9997,343.22,264.8516,95.229,6.0529e-06,-2.1e-07,0.0,0 STARLINK-3058,1 49138U 21082J   23145.89005698 -.00000021  00000-0  60529-5 0  9999,2 49138  69.9997 343.2200 0003097 264.8516  95.2290 14.98332053 93378,6950.187,96.107,574.204,569.899,0.0
49138.0,STARLINK-3058,PAYLOAD,2023-05-26 13:23:01,14.98331438,0.0003094,69.9997,341.5366,265.2317,94.8489,2.0897e-05,1.56e-06,0.0,0 STARLINK-3058,1 49138U 21082J   23146.55765612  .00000156  00000-0  20897-4 0  9993,2 49138  69.9997 341.5366 0003094 265.2317  94.8489 14.98331438 93475,6950.188,96.107,574.204,569.903,0.0
49138.0,STARLINK-3058,PAYLOAD,2023-05-26 18:11:25,14.98331466,0.0003097,69.9997,341.0318,265.1794,94.9011,2.0565e-05,1.52e-06,0.0,0 STARLINK-3058,1 49138U 21082J   23146.75793590  .00000152  00000-0  20565-4 0  9999,2 49138  69.9997 341.0318 0003097 265.1794  94.9011 14.98331466 93505,6950.188,96.107,574.206,569.901,0.0
49138.0,STARLINK-3058,PAYLOAD,2023-05-26 21:23:41,14.98331182,0.0003098,69.9997,340.6952,265.2128,94.8678,1.6368e-05,1.02e-06,0.0,0 STARLINK-3058,1 49138U 21082J   23146.89145605  .00000102  00000-0  16368-4 0  9993,2 49138  69.9997 340.6952 0003098 265.2128  94.8678 14.98331182 93522,6950.189,96.107,574.207,569.901,0.0
49138.0,STARLINK-3058,PAYLOAD,2023-05-27 19:49:34,14.9833312,0.0003094,69.9996,338.3383,265.568,94.5126,3.5534e-05,3.31e-06,0.0,0 STARLINK-3058,1 49138U 21082J   23147.82609290  .00000331  00000-0  35534-4 0  9992,2 49138  69.9996 338.3383 0003094 265.5680  94.5126 14.98333120 93669,6950.183,96.107,574.199,569.898,0.0
49138.0,STARLINK-3058,PAYLOAD,2023-05-27 21:25:42,14.98332923,0.00031,69.9996,338.1701,265.5675,94.513,3.2118e-05,2.9e-06,0.0,0 STARLINK-3058,1 49138U 21082J   23147.89285300  .00000290  00000-0  32118-4 0  9990,2 49138  69.9996 338.1701 0003100 265.5675  94.5130 14.98332923 93679,6950.184,96.107,574.203,569.894,0.0
